ONEWEB-0012             
1 44057U 19010A   25148.70855555 -.00000016  00000+0 -74304-4 0  9991
2 44057  87.9021 305.4382 0001260  87.1393 272.9882 13.16595404300979
ONEWEB-0010             
1 44058U 19010B   25148.73389342  .00000105  00000+0  23995-3 0  9997
2 44058  87.9025 305.4166 0001899 109.7892 250.3444 13.16594949301021
ONEWEB-0008             
1 44059U 19010C   25148.68322202 -.00000068  00000+0 -21053-3 0  9997
2 44059  87.9020 305.4260 0001924  90.7471 269.3880 13.16595403301135
ONEWEB-0007             
1 44060U 19010D   25148.48895400 -.00000048  00000+0 -16162-3 0  9995
2 44060  87.9049 335.9071 0001490  97.9976 262.1324 13.15549431300797
ONEWEB-0006             
1 44061U 19010E   25148.49291602  .00000047  00000+0  90249-4 0  9997
2 44061  87.9037 335.8564 0001656  99.6826 260.4491 13.15546911300840
ONEWEB-0011             
1 44062U 19010F   25148.23464436 -.00000120  00000+0 -35152-3 0  9992
2 44062  87.9044 335.9166 0002003  93.8644 266.2715 13.15547174300800
ONEWEB-0013             
1 45131U 20008A   25148.66567681 -.00000703  00000+0 -20794-2 0  9994
2 45131  87.8543 130.4156 0001442  58.1342 301.9925 13.09423060255745
ONEWEB-0017             
1 45132U 20008B   25148.38699073 -.00000628  00000+0 -18349-2 0  9994
2 45132  87.8810 113.0006 0002138  90.6369 269.5004 13.10372404257552
